STARLINK-2604           
1 48374U 21038X   26068.03940903 -.00013185  00000+0 -43406-3 0  9999
2 48374  53.1609 350.8195 0001104  77.5894 282.5231 15.30183966267122
PHISAT 2                
1 60470U 24149C   26068.78834181  .00008925  00000+0  31421-3 0  9996
2 60470  97.3806 148.6498 0001175 168.6230 191.5037 15.29548631 86792
